{
    "links": {
        "self": "http://www.neowsapp.com/rest/v1/neo/3363420?api_key=iIulBulltgU6a56xZRHN4H3l9WmuAYTsLGpBGhQ2"
    },
    "id": "3363420",
    "neo_reference_id": "3363420",
    "name": "(2006 XH2)",
    "designation": "2006 XH2",
    "nasa_jpl_url": "http://ssd.jpl.nasa.gov/sbdb.cgi?sstr=3363420",
    "absolute_magnitude_h": 24.4,
    "estimated_diameter": {
        "kilometers": {
            "estimated_diameter_min": 0.0350392641,
            "estimated_diameter_max": 0.0783501764
        },
        "meters": {
            "estimated_diameter_min": 35.0392641108,
            "estimated_diameter_max": 78.3501764334
        },
        "miles": {
            "estimated_diameter_min": 0.0217723826,
            "estimated_diameter_max": 0.0486845275
        },
        "feet": {
            "estimated_diameter_min": 114.9582192654,
            "estimated_diameter_max": 257.0543928497
        }
    },
    "is_potentially_hazardous_asteroid": false,
    "close_approach_data": [
        {
            "close_approach_date": "2006-12-06",
            "close_approach_date_full": "2006-Dec-06 18:57",
            "epoch_date_close_approach": 1165431420000,
            "relative_velocity": {
                "kilometers_per_second": "22.0703245751",
                "kilometers_per_hour": "79453.1684703348",
                "miles_per_hour": "49369.1090420255"
            },
            "miss_distance": {
                "astronomical": "0.0203987358",
                "lunar": "7.9351082262",
                "kilometers": "3051607.426372746",
                "miles": "1896180.9276700548"
            },
            "orbiting_body": "Earth"
        }
    ],
    "orbital_data": {
        "orbit_id": "12",
        "orbit_determination_date": "2017-04-06 09:07:24",
        "first_observation_date": "2006-12-12",
        "last_observation_date": "2006-12-24",
        "data_arc_in_days": 12,
        "observations_used": 30,
        "orbit_uncertainty": "9",
        "minimum_orbit_intersection": ".0132948",
        "jupiter_tisserand_invariant": "3.166",
        "epoch_osculation": "2454083.5",
        "eccentricity": ".7364236943116078",
        "semi_major_axis": "2.293904545202366",
        "inclination": "2.033109849725304",
        "ascending_node_longitude": "51.21347736097348",
        "orbital_period": "1268.99946719177",
        "perihelion_distance": ".6046188856262512",
        "perihelion_argument": "297.4558509586315",
        "aphelion_distance": "3.983190204778481",
        "perihelion_time": "2454032.101787099495",
        "mean_anomaly": "14.58105942717908",
        "mean_motion": ".2836880623729979",
        "equinox": "J2000",
        "orbit_class": {
            "orbit_class_type": "APO",
            "orbit_class_description": "Near-Earth asteroid orbits which cross the Earth’s orbit similar to that of 1862 Apollo",
            "orbit_class_range": "a (semi-major axis) > 1.0 AU; q (perihelion) < 1.017 AU"
        }
    },
    "is_sentry_object": false
}